{
  "type": "FeatureCollection",
  "features": [
    {
      "type": "Feature",
      "properties": {
        "norad_id": 39766,
        "name": "ALOS-2",
        "group": "resource",
        "lat": -19.271748352327105,
        "lon": -97.8313346688191,
        "alt_km": 636.299074175412,
        "timestamp": "2025-12-16T03:53:26.715916+00:00",
        "meta_object_name": "ALOS-2",
        "meta_object_id": "2014-029A",
        "meta_epoch": "2025-12-15T10:45:38.494080",
        "meta_mean_motion": 14.7946645,
        "meta_eccentricity": 0.0001396,
        "meta_inclination": 97.9228,
        "meta_ra_of_asc_node": 84.2561,
        "meta_arg_of_pericenter": 102.692,
        "meta_mean_anomaly": 257.4448,
        "meta_ephemeris_type": 0,
        "meta_classification_type": "U",
        "meta_norad_cat_id": 39766,
        "meta_element_set_no": 999,
        "meta_rev_at_epoch": 62441,
        "meta_bstar": 0.00030229,
        "meta_mean_motion_dot": 2.206e-05,
        "meta_mean_motion_ddot": 0,
        "tle_line1": "1 39766U 14029A   25349.44836220  .00002206  00000+0  30229-3 0  9997",
        "tle_line2": "2 39766  97.9228  84.2561 0001396 102.6920 257.4448 14.79466450624412"
      },
      "geometry": {
        "type": "Point",
        "coordinates": [
          -97.8313346688191,
          -19.271748352327105
        ]
      }
    },
    {
      "type": "Feature",
      "properties": {
        "norad_id": 40010,
        "name": "KAZEOSAT 2",
        "group": "resource",
        "lat": 0.3366955664834645,
        "lon": 14.344198089356118,
        "alt_km": 610.7158124645675,
        "timestamp": "2025-12-16T03:53:26.715927+00:00",
        "meta_object_name": "KAZEOSAT 2",
        "meta_object_id": "2014-033A",
        "meta_epoch": "2025-12-15T07:40:51.608928",
        "meta_mean_motion": 14.85172402,
        "meta_eccentricity": 0.00078833,
        "meta_inclination": 97.5508,
        "meta_ra_of_asc_node": 193.5012,
        "meta_arg_of_pericenter": 197.5501,
        "meta_mean_anomaly": 162.5444,
        "meta_ephemeris_type": 0,
        "meta_classification_type": "U",
        "meta_norad_cat_id": 40010,
        "meta_element_set_no": 999,
        "meta_rev_at_epoch": 62166,
        "meta_bstar": 0.00010393243,
        "meta_mean_motion_dot": 8.4e-06,
        "meta_mean_motion_ddot": 0,
        "tle_line1": "1 40010U 14033A   25349.32004177  .00000840  00000+0  10393-3 0  9993",
        "tle_line2": "2 40010  97.5508 193.5012 0007883 197.5501 162.5444 14.85172402621667"
      },
      "geometry": {
        "type": "Point",
        "coordinates": [
          14.344198089356118,
          0.3366955664834645
        ]
      }
    },
    {
      "type": "Feature",
      "properties": {
        "norad_id": 40011,
        "name": "HODOYOSHI-4",
        "group": "resource",
        "lat": -62.9456615078152,
        "lon": -166.08813661973954,
        "alt_km": 617.771555656228,
        "timestamp": "2025-12-16T03:53:26.715938+00:00",
        "meta_object_name": "HODOYOSHI-4",
        "meta_object_id": "2014-033B",
        "meta_epoch": "2025-12-15T08:48:19.213920",
        "meta_mean_motion": 14.87495593,
        "meta_eccentricity": 0.00233053,
        "meta_inclination": 97.5418,
        "meta_ra_of_asc_node": 178.1212,
        "meta_arg_of_pericenter": 191.4423,
        "meta_mean_anomaly": 168.6267,
        "meta_ephemeris_type": 0,
        "meta_classification_type": "U",
        "meta_norad_cat_id": 40011,
        "meta_element_set_no": 999,
        "meta_rev_at_epoch": 62147,
        "meta_bstar": 0.00024203553,
        "meta_mean_motion_dot": 2.152e-05,
        "meta_mean_motion_ddot": 0,
        "tle_line1": "1 40011U 14033B   25349.36688905  .00002152  00000+0  24204-3 0  9999",
        "tle_line2": "2 40011  97.5418 178.1212 0023305 191.4423 168.6267 14.87495593621472"
      },
      "geometry": {
        "type": "Point",
        "coordinates": [
          -166.08813661973954,
          -62.9456615078152
        ]
      }
    },
    {
      "type": "Feature",
      "properties": {
        "norad_id": 40013,
        "name": "DEIMOS-2",
        "group": "resource",
        "lat": 19.052446853488416,
        "lon": 48.49398266919129,
        "alt_km": 588.4810501910415,
        "timestamp": "2025-12-16T03:53:26.715949+00:00",
        "meta_object_name": "DEIMOS-2",
        "meta_object_id": "2014-033D",
        "meta_epoch": "2025-12-15T07:52:16.874976",
        "meta_mean_motion": 14.92983976,
        "meta_eccentricity": 9.908e-05,
        "meta_inclination": 97.6062,
        "meta_ra_of_asc_node": 225.0425,
        "meta_arg_of_pericenter": 110.4253,
        "meta_mean_anomaly": 249.7073,
        "meta_ephemeris_type": 0,
        "meta_classification_type": "U",
        "meta_norad_cat_id": 40013,
        "meta_element_set_no": 999,
        "meta_rev_at_epoch": 61028,
        "meta_bstar": 0.00019793248,
        "meta_mean_motion_dot": 2.002e-05,
        "meta_mean_motion_ddot": 0,
        "tle_line1": "1 40013U 14033D   25349.32797309  .00002002  00000+0  19793-3 0  9997",
        "tle_line2": "2 40013  97.6062 225.0425 0000990 110.4253 249.7073 14.92983976610281"
      },
      "geometry": {
        "type": "Point",
        "coordinates": [
          48.49398266919129,
          19.052446853488416
        ]
      }
    },
    {
      "type": "Feature",
      "properties": {
        "norad_id": 40015,
        "name": "HODOYOSHI-3",
        "group": "resource",
        "lat": -8.11421725586057,
        "lon": -25.245664292451398,
        "alt_km": 603.2501967305761,
        "timestamp": "2025-12-16T03:53:26.715960+00:00",
        "meta_object_name": "HODOYOSHI-3",
        "meta_object_id": "2014-033F",
        "meta_epoch": "2025-12-15T07:38:07.719360",
        "meta_mean_motion": 14.84816619,
        "meta_eccentricity": 0.00319655,
        "meta_inclination": 97.6196,
        "meta_ra_of_asc_node": 155.041,
        "meta_arg_of_pericenter": 239.0645,
        "meta_mean_anomaly": 120.7428,
        "meta_ephemeris_type": 0,
        "meta_classification_type": "U",
        "meta_norad_cat_id": 40015,
        "meta_element_set_no": 999,
        "meta_rev_at_epoch": 62033,
        "meta_bstar": 0.0001648663,
        "meta_mean_motion_dot": 1.36e-05,
        "meta_mean_motion_ddot": 0,
        "tle_line1": "1 40015U 14033F   25349.31814490  .00001360  00000+0  16487-3 0  9992",
        "tle_line2": "2 40015  97.6196 155.0410 0031965 239.0645 120.7428 14.84816619620335"
      },
      "geometry": {
        "type": "Point",
        "coordinates": [
          -25.245664292451398,
          -8.11421725586057
        ]
      }
    },
    {
      "type": "Feature",
      "properties": {
        "norad_id": 40053,
        "name": "SPOT 7",
        "group": "resource",
        "lat": -24.871188074062562,
        "lon": 55.93968249549462,
        "alt_km": 696.7494403927385,
        "timestamp": "2025-12-16T03:53:26.715971+00:00",
        "meta_object_name": "SPOT 7",
        "meta_object_id": "2014-034A",
        "meta_epoch": "2025-12-15T08:16:40.071936",
        "meta_mean_motion": 14.607386,
        "meta_eccentricity": 0.00015737,
        "meta_inclination": 98.0906,
        "meta_ra_of_asc_node": 51.3604,
        "meta_arg_of_pericenter": 87.3351,
        "meta_mean_anomaly": 272.803,
        "meta_ephemeris_type": 0,
        "meta_classification_type": "U",
        "meta_norad_cat_id": 40053,
        "meta_element_set_no": 999,
        "meta_rev_at_epoch": 61029,
        "meta_bstar": 0.00015213681,
        "meta_mean_motion_dot": 6.96e-06,
        "meta_mean_motion_ddot": 0,
        "tle_line1": "1 40053U 14034A   25349.34490824  .00000696  00000+0  15214-3 0  9997",
        "tle_line2": "2 40053  98.0906  51.3604 0001573  87.3351 272.8030 14.60738600610293"
      },
      "geometry": {
        "type": "Point",
        "coordinates": [
          55.93968249549462,
          -24.871188074062562
        ]
      }
    },
    {
      "type": "Feature",
      "properties": {
        "norad_id": 40072,
        "name": "SKYSAT-B",
        "group": "resource",
        "lat": -56.500082905419966,
        "lon": 101.21058100930577,
        "alt_km": 613.8995683937383,
        "timestamp": "2025-12-16T03:53:26.715981+00:00",
        "meta_object_name": "SKYSAT-B",
        "meta_object_id": "2014-037D",
        "meta_epoch": "2025-12-15T07:27:07.336512",
        "meta_mean_motion": 14.8733752,
        "meta_eccentricity": 0.00063537,
        "meta_inclination": 98.3609,
        "meta_ra_of_asc_node": 293.1523,
        "meta_arg_of_pericenter": 142.589,
        "meta_mean_anomaly": 217.5768,
        "meta_ephemeris_type": 0,
        "meta_classification_type": "U",
        "meta_norad_cat_id": 40072,
        "meta_element_set_no": 999,
        "meta_rev_at_epoch": 61862,
        "meta_bstar": 0.00016645187,
        "meta_mean_motion_dot": 1.442e-05,
        "meta_mean_motion_ddot": 0,
        "tle_line1": "1 40072U 14037D   25349.31050158  .00001442  00000+0  16645-3 0  9999",
        "tle_line2": "2 40072  98.3609 293.1523 0006353 142.5890 217.5768 14.87337520618620"
      },
      "geometry": {
        "type": "Point",
        "coordinates": [
          101.21058100930577,
          -56.500082905419966
        ]
      }
    }
  ]
}